[
    {
        "Altitude(m)": 622205.8483042236,
        "Argument of Periapsis(deg)": 0.0,
        "Eccentricity": 0.0,
        "Inclination(deg)": 60.0,
        "Latitude(deg)": -52.16238246049807,
        "Longitude(deg)": 157.70029227637815,
        "Mean Anomaly(deg)": 245.4545,
        "RAAN(deg)": 30.0,
        "Satellite Name": "Test1 147",
        "Satellite Number": 147,
        "Semi-Major Axis(m)": 6980739.136638005,
        "Time(s)": 0
    },
    {
        "Altitude(m)": 622344.7553021858,
        "Argument of Periapsis(deg)": 0.00010418945913296404,
        "Eccentricity": 0.0,
        "Inclination(deg)": 60.0,
        "Latitude(deg)": -52.519963150745674,
        "Longitude(deg)": 158.48150238730108,
        "Mean Anomaly(deg)": 246.07460614546184,
        "RAAN(deg)": 29.99957995086026,
        "Satellite Name": "Test1 147",
        "Satellite Number": 147,
        "Semi-Major Axis(m)": 6980739.136638005,
        "Time(s)": 10
    },
    {
        "Altitude(m)": 622480.8186575747,
        "Argument of Periapsis(deg)": 0.0002083789182659281,
        "Eccentricity": 0.0,
        "Inclination(deg)": 60.0,
        "Latitude(deg)": -52.87170725889377,
        "Longitude(deg)": 159.27604462796205,
        "Mean Anomaly(deg)": 246.69471229092363,
        "RAAN(deg)": 29.999159901720517,
        "Satellite Name": "Test1 147",
        "Satellite Number": 147,
        "Semi-Major Axis(m)": 6980739.136638005,
        "Time(s)": 20
    },
    {
        "Altitude(m)": 622613.9851388263,
        "Argument of Periapsis(deg)": 0.00031256837739889213,
        "Eccentricity": 0.0,
        "Inclination(deg)": 60.0,
        "Latitude(deg)": -53.217446924262674,
        "Longitude(deg)": 160.08407996897543,
        "Mean Anomaly(deg)": 247.31481843638548,
        "RAAN(deg)": 29.99873985258077,
        "Satellite Name": "Test1 147",
        "Satellite Number": 147,
        "Semi-Major Axis(m)": 6980739.136638005,
        "Time(s)": 30
    },
    {
        "Altitude(m)": 622744.2026246107,
        "Argument of Periapsis(deg)": 0.0004167578365318562,
        "Eccentricity": 0.0,
        "Inclination(deg)": 60.0,
        "Latitude(deg)": -53.55701087924961,
        "Longitude(deg)": 160.9057577579343,
        "Mean Anomaly(deg)": 247.9349245818473,
        "RAAN(deg)": 29.998319803441028,
        "Satellite Name": "Test1 147",
        "Satellite Number": 147,
        "Semi-Major Axis(m)": 6980739.136638005,
        "Time(s)": 40
    },
    {
        "Altitude(m)": 622871.4201260704,
        "Argument of Periapsis(deg)": 0.0005209472956648203,
        "Eccentricity": 0.0,
        "Inclination(deg)": 60.0,
        "Latitude(deg)": -53.89022457208326,
        "Longitude(deg)": 161.7412133229164,
        "Mean Anomaly(deg)": 248.55503072730914,
        "RAAN(deg)": 29.997899754301283,
        "Satellite Name": "Test1 147",
        "Satellite Number": 147,
        "Semi-Major Axis(m)": 6980739.136638005,
        "Time(s)": 50
    },
    {
        "Altitude(m)": 622995.587808553,
        "Argument of Periapsis(deg)": 0.0006251367547977843,
        "Eccentricity": 0.0,
        "Inclination(deg)": 60.0,
        "Latitude(deg)": -54.21691031356607,
        "Longitude(deg)": 162.59056702525308,
        "Mean Anomaly(deg)": 249.17513687277093,
        "RAAN(deg)": 29.99747970516154,
        "Satellite Name": "Test1 147",
        "Satellite Number": 147,
        "Semi-Major Axis(m)": 6980739.136638005,
        "Time(s)": 60
    },
    {
        "Altitude(m)": 623116.657012869,
        "Argument of Periapsis(deg)": 0.0007293262139307483,
        "Eccentricity": 0.0,
        "Inclination(deg)": 60.0,
        "Latitude(deg)": -54.53688744941827,
        "Longitude(deg)": 163.4539232530554,
        "Mean Anomaly(deg)": 249.79524301823278,
        "RAAN(deg)": 29.997059656021797,
        "Satellite Name": "Test1 147",
        "Satellite Number": 147,
        "Semi-Major Axis(m)": 6980739.136638005,
        "Time(s)": 70
    },
    {
        "Altitude(m)": 623234.5802759883,
        "Argument of Periapsis(deg)": 0.0008335156730637124,
        "Eccentricity": 0.0,
        "Inclination(deg)": 60.0,
        "Latitude(deg)": -54.84997255979287,
        "Longitude(deg)": 164.3313678482658,
        "Mean Anomaly(deg)": 250.41534916369466,
        "RAAN(deg)": 29.996639606882056,
        "Satellite Name": "Test1 147",
        "Satellite Number": 147,
        "Semi-Major Axis(m)": 6980739.136638005,
        "Time(s)": 80
    },
    {
        "Altitude(m)": 623349.3113512694,
        "Argument of Periapsis(deg)": 0.0009377051321966765,
        "Eccentricity": 0.0,
        "Inclination(deg)": 60.0,
        "Latitude(deg)": -55.15597968747421,
        "Longitude(deg)": 165.22296700003267,
        "Mean Anomaly(deg)": 251.03545530915648,
        "RAAN(deg)": 29.996219557742315,
        "Satellite Name": "Test1 147",
        "Satellite Number": 147,
        "Semi-Major Axis(m)": 6980739.136638005,
        "Time(s)": 90
    },
    {
        "Altitude(m)": 623460.8052280964,
        "Argument of Periapsis(deg)": 0.0010418945913296407,
        "Eccentricity": 0.0,
        "Inclination(deg)": 60.0,
        "Latitude(deg)": -55.45472059616357,
        "Longitude(deg)": 166.12876610009044,
        "Mean Anomaly(deg)": 251.65556145461832,
        "RAAN(deg)": 29.995799508602573,
        "Satellite Name": "Test1 147",
        "Satellite Number": 147,
        "Semi-Major Axis(m)": 6980739.136638005,
        "Time(s)": 100
    },
    {
        "Altitude(m)": 623569.018151042,
        "Argument of Periapsis(deg)": 0.0011460840504626045,
        "Eccentricity": 0.0,
        "Inclination(deg)": 60.0,
        "Latitude(deg)": -55.74600506012273,
        "Longitude(deg)": 167.04878705742715,
        "Mean Anomaly(deg)": 252.2756676000801,
        "RAAN(deg)": 29.99537945946283,
        "Satellite Name": "Test1 147",
        "Satellite Number": 147,
        "Semi-Major Axis(m)": 6980739.136638005,
        "Time(s)": 110
    },
    {
        "Altitude(m)": 623673.9076384174,
        "Argument of Periapsis(deg)": 0.0012502735095955685,
        "Eccentricity": 0.0,
        "Inclination(deg)": 60.0,
        "Latitude(deg)": -56.029641186286504,
        "Longitude(deg)": 167.98302710981565,
        "Mean Anomaly(deg)": 252.89577374554196,
        "RAAN(deg)": 29.994959410323087,
        "Satellite Name": "Test1 147",
        "Satellite Number": 147,
        "Semi-Major Axis(m)": 6980739.136638005,
        "Time(s)": 120
    },
    {
        "Altitude(m)": 623775.432500345,
        "Argument of Periapsis(deg)": 0.0013544629687285324,
        "Eccentricity": 0.0,
        "Inclination(deg)": 60.0,
        "Latitude(deg)": -56.30543576973631,
        "Longitude(deg)": 168.93145763289084,
        "Mean Anomaly(deg)": 253.51587989100378,
        "RAAN(deg)": 29.994539361183346,
        "Satellite Name": "Test1 147",
        "Satellite Number": 147,
        "Semi-Major Axis(m)": 6980739.136638005,
        "Time(s)": 130
    },
    {
        "Altitude(m)": 623873.5528561984,
        "Argument of Periapsis(deg)": 0.0014586524278614966,
        "Eccentricity": 0.0,
        "Inclination(deg)": 60.0,
        "Latitude(deg)": -56.573194683178336,
        "Longitude(deg)": 169.89402144920615,
        "Mean Anomaly(deg)": 254.13598603646562,
        "RAAN(deg)": 29.994119312043605,
        "Satellite Name": "Test1 147",
        "Satellite Number": 147,
        "Semi-Major Axis(m)": 6980739.136638005,
        "Time(s)": 140
    },
    {
        "Altitude(m)": 623968.2301515506,
        "Argument of Periapsis(deg)": 0.0015628418869944607,
        "Eccentricity": 0.0,
        "Inclination(deg)": 60.0,
        "Latitude(deg)": -56.83272330078076,
        "Longitude(deg)": 170.87063168004724,
        "Mean Anomaly(deg)": 254.75609218192741,
        "RAAN(deg)": 29.993699262903853,
        "Satellite Name": "Test1 147",
        "Satellite Number": 147,
        "Semi-Major Axis(m)": 6980739.136638005,
        "Time(s)": 150
    },
    {
        "Altitude(m)": 624059.4271744797,
        "Argument of Periapsis(deg)": 0.0016670313461274247,
        "Eccentricity": 0.0,
        "Inclination(deg)": 60.0,
        "Latitude(deg)": -57.083826956381536,
        "Longitude(deg)": 171.8611706458499,
        "Mean Anomaly(deg)": 255.37619832738926,
        "RAAN(deg)": 29.99327921376411,
        "Satellite Name": "Test1 147",
        "Satellite Number": 147,
        "Semi-Major Axis(m)": 6980739.136638005,
        "Time(s)": 160
    },
    {
        "Altitude(m)": 624147.1080713471,
        "Argument of Periapsis(deg)": 0.0017712208052603888,
        "Eccentricity": 0.0,
        "Inclination(deg)": 60.0,
        "Latitude(deg)": -57.32631143569277,
        "Longitude(deg)": 172.86548732263824,
        "Mean Anomaly(deg)": 255.99630447285108,
        "RAAN(deg)": 29.99285916462437,
        "Satellite Name": "Test1 147",
        "Satellite Number": 147,
        "Semi-Major Axis(m)": 6980739.136638005,
        "Time(s)": 170
    },
    {
        "Altitude(m)": 624231.2383619766,
        "Argument of Periapsis(deg)": 0.001875410264393353,
        "Eccentricity": 0.0,
        "Inclination(deg)": 60.0,
        "Latitude(deg)": -57.55998350171274,
        "Longitude(deg)": 173.88339640193973,
        "Mean Anomaly(deg)": 256.6164106183129,
        "RAAN(deg)": 29.99243911548463,
        "Satellite Name": "Test1 147",
        "Satellite Number": 147,
        "Semi-Major Axis(m)": 6980739.136638005,
        "Time(s)": 180
    },
    {
        "Altitude(m)": 624311.7849542436,
        "Argument of Periapsis(deg)": 0.0019795997235263173,
        "Eccentricity": 0.0,
        "Inclination(deg)": 60.0,
        "Latitude(deg)": -57.784651452082784,
        "Longitude(deg)": 174.91467746422347,
        "Mean Anomaly(deg)": 257.2365167637747,
        "RAAN(deg)": 29.992019066344888,
        "Satellite Name": "Test1 147",
        "Satellite Number": 147,
        "Semi-Major Axis(m)": 6980739.136638005,
        "Time(s)": 190
    }
]